YAOGAN-43 01D           
1 60461U 24148D   26068.43560480  .00010676  00000+0  37766-3 0  9999
2 60461  35.0010  61.7102 0002556 326.2473  33.8080 15.28369377 87008
STARLINK-34240          
1 64265U 25120K   26068.51080493  .00030138  00000+0  10258-2 0  9997
2 64265  53.1594 117.8863 0001349  70.2304 289.8842 15.30192145 43884
